STARLINK-35870          
1 66572U 25268R   26067.49582661  .00001142  00000+0  50974-4 0  9997
2 66572  43.0010 354.1122 0000143 225.0235 135.0605 15.27602843 17771
2025-313BC              
1 67298U 25313BC  26068.18968176  .00075331  00000+0  26410-2 0  9997
2 67298  97.3985 144.8110 0008478 328.9209  31.1528 15.29126358  7890
